NORAD_CAT_ID,OBJECT_NAME,OBJECT_TYPE,EPOCH,MEAN_MOTION,ECCENTRICITY,INCLINATION,RA_OF_ASC_NODE,ARG_OF_PERICENTER,MEAN_ANOMALY,BSTAR,MEAN_MOTION_DOT,MEAN_MOTION_DDOT,TLE_LINE0,TLE_LINE1,TLE_LINE2,SEMIMAJOR_AXIS,PERIOD,APOGEE,PERIGEE,DECAYED
53818.0,STARLINK-4749,PAYLOAD,2022-09-23 16:00:00,15.87728088,0.0031197,53.2174,236.2277,55.2675,30.6509,-0.0042707,-0.01217406,0.00042005,0 STARLINK-4749,1 53818U 22114A   22266.66667824 -.01217406  42005-3 -42707-2 0  9997,2 53818  53.2174 236.2277 0031197  55.2675  30.6509 15.87728088  1300,6686.791,90.696,329.517,287.795,0.0
53818.0,STARLINK-4749,PAYLOAD,2022-09-24 06:00:00,15.86151386,0.0024648,53.2171,233.2827,56.4833,124.1765,-0.0044174,-0.01146825,0.00037143,0 STARLINK-4749,1 53818U 22114A   22267.25001157 -.01146825  37143-3 -44174-2 0  9997,2 53818  53.2171 233.2827 0024648  56.4833 124.1765 15.86151386  1399,6691.222,90.786,329.579,296.594,0.0
53818.0,STARLINK-4749,PAYLOAD,2022-09-24 14:00:01,15.85374831,0.0020914,53.2168,231.601,55.8742,228.9139,-0.0052141,-0.01147922,0.0,0 STARLINK-4749,1 53818U 22114A   22267.58335648 -.01147922  00000-0 -52141-2 0  9999,2 53818  53.2168 231.6010 0020914  55.8742 228.9139 15.85374831  1440,6693.406999999997,90.83,329.27,301.273,0.0
53818.0,STARLINK-4749,PAYLOAD,2022-09-24 22:00:00,15.8452976,0.0017422999999999,53.2176,229.9223,53.8671,333.9071,-0.0055621,-0.01164216,0.0,0 STARLINK-4749,1 53818U 22114A   22267.91667824 -.01164216  00000-0 -55621-2 0  9991,2 53818  53.2176 229.9223 0017423  53.8671 333.9071 15.84529760  1494,6695.786,90.879,329.31699999999995,305.985,0.0
53818.0,STARLINK-4749,PAYLOAD,2022-09-25 14:00:01,15.82823364,0.0010538,53.2174,226.5725,46.37600000000001,184.3936,-0.0063646,-0.01230673,0.0,0 STARLINK-4749,1 53818U 22114A   22268.58334491 -.01230673  00000-0 -63646-2 0  9993,2 53818  53.2174 226.5725 0010538  46.3760 184.3936 15.82823364  1301,6700.598000000001,90.977,329.524,315.402,0.0
53818.0,STARLINK-4749,PAYLOAD,2022-09-25 22:00:01,15.81945674,0.0006976,53.2175,224.8997,41.0702,289.7073,-0.0065486,-0.01212169,0.0,0 STARLINK-4749,1 53818U 22114A   22268.91668981 -.01212169  00000-0 -65486-2 0  9998,2 53818  53.2175 224.8997 0006976  41.0702 289.7073 15.81945674  1303,6703.076,91.027,329.617,320.265,0.0
53818.0,STARLINK-4749,PAYLOAD,2022-09-26 10:00:00,15.80652231,0.0003424,53.2171,222.3975,12.1319,286.5273,-0.0070492,-0.0122321,0.0,0 STARLINK-4749,1 53818U 22114A   22269.41667824 -.01223210  00000-0 -70492-2 0  9991,2 53818  53.2171 222.3975 0003424  12.1319 286.5273 15.80652231  1733,6706.732,91.102,330.89300000000014,326.301,0.0
53818.0,STARLINK-4749,PAYLOAD,2022-09-26 14:00:01,15.8020179,0.0003022,53.2174,221.5626,1.3148,166.1467,-0.0070154,-0.011953,0.0,0 STARLINK-4749,1 53818U 22114A   22269.58334491 -.01195300  00000-0 -70154-2 0  9993,2 53818  53.2174 221.5626 0003022   1.3148 166.1467 15.80201790  1305,6708.007,91.128,331.899,327.844,0.0
53818.0,STARLINK-4749,PAYLOAD,2022-09-26 22:00:00,15.79471841,0.0003458999999999,53.2171,219.8955,296.5487,327.6538,-0.0084917,-0.01400056,0.0,0 STARLINK-4749,1 53818U 22114A   22269.91667824 -.01400056  00000-0 -84917-2 0  9998,2 53818  53.2171 219.8955 0003459 296.5487 327.6538 15.79471841  1302,6710.073,91.17,334.259,329.617,0.0
53818.0,STARLINK-4749,PAYLOAD,2022-09-27 06:00:00,15.78434004,0.0005809999999999,53.2174,218.2342,277.7033,82.3499,-0.007318,-0.01156518,0.0,0 STARLINK-4749,1 53818U 22114A   22270.25001157 -.01156518  00000-0 -73180-2 0  9999,2 53818  53.2174 218.2342 0005810 277.7033  82.3499 15.78434004  1860,6713.014,91.23,338.779,330.9790000000001,0.0
53818.0,STARLINK-4749,PAYLOAD,2022-09-27 14:00:01,15.77602817,0.0006815,53.2172,216.5714,272.634,182.1246,-0.0079458,-0.01204326,0.0,0 STARLINK-4749,1 53818U 22114A   22270.58334491 -.01204326  00000-0 -79458-2 0  9990,2 53818  53.2172 216.5714 0006815 272.6340 182.1246 15.77602817  1309,6715.371999999999,91.278,341.8130000000001,332.66,0.0
53818.0,STARLINK-4749,PAYLOAD,2022-09-27 22:00:01,15.76672291,0.0005105,53.217,214.9111,269.0673,279.4695,-0.0076691999999999,-0.01122718,0.0,0 STARLINK-4749,1 53818U 22114A   22270.91668981 -.01122718  00000-0 -76692-2 0  9992,2 53818  53.2170 214.9111 0005105 269.0673 279.4695 15.76672291  1973,6718.014,91.332,343.30800000000005,336.449,0.0
53818.0,STARLINK-4749,PAYLOAD,2022-09-28 06:00:00,15.75847388,0.0002117,53.2174,213.2575,269.7476,11.3336,-0.0083428,-0.01169419,0.0,0 STARLINK-4749,1 53818U 22114A   22271.25001157 -.01169419  00000-0 -83428-2 0  9990,2 53818  53.2174 213.2575 0002117 269.7476  11.3336 15.75847388  2023,6720.358,91.379,343.646,340.8,0.0
53818.0,STARLINK-4749,PAYLOAD,2022-09-28 14:00:01,15.75064376,7.340000000000001e-05,53.2173,211.6002,42.5522,330.0853,-0.0095947,-0.01306439,0.0,0 STARLINK-4749,1 53818U 22114A   22271.58334491 -.01306439  00000-0 -95947-2 0  9990,2 53818  53.2173 211.6002 0000734  42.5522 330.0853 15.75064376  1304,6722.585,91.425,344.9430000000001,343.957,0.0
53818.0,STARLINK-4749,PAYLOAD,2022-09-28 22:00:00,15.7403084,9.54e-05,53.2172,209.9467,59.1494,44.0784,-0.0066184,-0.00869324,0.0,0 STARLINK-4749,1 53818U 22114A   22271.91667824 -.00869324  00000-0 -66184-2 0  9993,2 53818  53.2172 209.9467 0000954  59.1494  44.0784 15.74030840  1307,6725.526999999999,91.485,348.034,346.751,0.0
53818.0,STARLINK-4749,PAYLOAD,2022-09-29 06:00:00,15.73284843,0.0001247,53.2175,208.2982,54.0948,138.6755,-0.00091321,-0.00127321,0.0,0 STARLINK-4749,1 53818U 22114A   22272.25001157 -.00127321  00000-0 -91321-3 0  9998,2 53818  53.2175 208.2982 0001247  54.0948 138.6755 15.73284843  2186,6727.653,91.528,350.357,348.67900000000014,0.0
53818.0,STARLINK-4749,PAYLOAD,2022-09-29 14:00:01,15.7320509,0.0001152,53.2175,206.6473,64.4132,217.3311,-1.2315e-05,-2.348e-05,0.0,0 STARLINK-4749,1 53818U 22114A   22272.58334491 -.00002348  00000-0 -12315-4 0  9992,2 53818  53.2175 206.6473 0001152  64.4132 217.3311 15.73205090  1301,6727.880999999999,91.533,350.521,348.971,0.0
53818.0,STARLINK-4749,PAYLOAD,2022-09-29 22:00:00,15.732738500000002,0.000109,53.2151,204.9936,79.0443,291.6837,-0.00047419,-0.00066851,0.0,0 STARLINK-4749,1 53818U 22114A   22272.91667824 -.00066851  00000-0 -47419-3 0  9999,2 53818  53.2151 204.9936 0001090  79.0443 291.6837 15.73273850  1305,6727.685,91.529,350.283,348.816,0.0
53818.0,STARLINK-4749,PAYLOAD,2022-09-30 06:00:02,15.73195876,0.0001094,53.215,203.3457,68.4286,31.367,7.9666e-05,0.00010573,0.0,0 STARLINK-4749,1 53818U 22114A   22273.25002315  .00010573  00000-0  79666-4 0  9993,2 53818  53.2150 203.3457 0001094  68.4286  31.3670 15.73195876  2346,6727.906999999997,91.533,350.5080000000001,349.036,0.0
53818.0,STARLINK-4749,PAYLOAD,2022-09-30 14:00:01,15.73199128,0.0001036999999999,53.2152,201.6942,80.844,107.8084,0.00021157,0.00029174,0.0,0 STARLINK-4749,1 53818U 22114A   22273.58334491  .00029174  00000-0  21157-3 0  9990,2 53818  53.2152 201.6942 0001037  80.8440 107.8084 15.73199128  1302,6727.898,91.533,350.46,349.065,0.0
53818.0,STARLINK-4749,PAYLOAD,2022-09-30 22:00:00,15.73219204,0.0001057,53.2153,200.0449,80.3552,197.2466,0.00010363,0.0001395999999999,0.0,0 STARLINK-4749,1 53818U 22114A   22273.91667824  .00013960  00000-0  10363-3 0  9999,2 53818  53.2153 200.0449 0001057  80.3552 197.2466 15.73219204  1304,6727.84,91.532,350.417,348.994,0.0
53818.0,STARLINK-4749,PAYLOAD,2022-10-01 06:00:00,15.73354496,0.0001492,53.2147,198.3969,89.7652,276.8318,-0.00011473,-0.00016798,0.0,0 STARLINK-4749,1 53818U 22114A   22274.25001157 -.00016798  00000-0 -11473-3 0  9995,2 53818  53.2147 198.3969 0001492  89.7652 276.8318 15.73354496  2494,6727.455,91.524,350.3230000000001,348.316,0.0
53818.0,STARLINK-4749,PAYLOAD,2022-10-01 14:00:01,15.73286929,0.0001631999999999,53.2146,196.745,102.4744,353.2443,0.00043755,0.00061468,0.0,0 STARLINK-4749,1 53818U 22114A   22274.58334491  .00061468  00000-0  43755-3 0  9991,2 53818  53.2146 196.7450 0001632 102.4744 353.2443 15.73286929  1304,6727.647,91.528,350.61,348.414,0.0
53818.0,STARLINK-4749,PAYLOAD,2022-10-01 22:00:00,15.73347058,0.0001625,53.2147,195.0959,103.8659,80.8941,-0.000582,-0.00082025,0.0,0 STARLINK-4749,1 53818U 22114A   22274.91667824 -.00082025  00000-0 -58200-3 0  9992,2 53818  53.2147 195.0959 0001625 103.8659  80.8941 15.73347058  2604,6727.476,91.525,350.434,348.24800000000016,0.0
53818.0,STARLINK-4749,PAYLOAD,2022-10-02 14:00:01,15.73144471,0.0001376999999999,53.2148,191.7955,111.9157,250.9373,-0.0011535,-0.00159105,0.0,0 STARLINK-4749,1 53818U 22114A   22275.58334491 -.00159105  00000-0 -11535-2 0  9990,2 53818  53.2148 191.7955 0001377 111.9157 250.9373 15.73144471  1300,6728.053000000001,91.536,350.845,348.992,0.0
53818.0,STARLINK-4749,PAYLOAD,2022-10-02 22:00:00,15.73041467,0.0001161,53.215,190.1471,110.9642,340.6761,0.00024841,0.00034149,0.0,0 STARLINK-4749,1 53818U 22114A   22275.91667824  .00034149  00000-0  24841-3 0  9999,2 53818  53.2150 190.1471 0001161 110.9642 340.6761 15.73041467  2768,6728.347,91.542,350.99300000000005,349.431,0.0
53818.0,STARLINK-4749,PAYLOAD,2022-10-03 14:00:01,15.73125189,0.0001100999999999,53.2146,186.8478,119.4004,149.8216,0.0009695,0.00137246,0.0,0 STARLINK-4749,1 53818U 22114A   22276.58334491  .00137246  00000-0  96950-3 0  9996,2 53818  53.2146 186.8478 0001101 119.4004 149.8216 15.73125189  1309,6728.108,91.538,350.714,349.233,0.0
53818.0,STARLINK-4749,PAYLOAD,2022-10-03 22:00:00,15.73233567,0.0001220999999999,53.2148,185.1994,115.0397,243.0494,-0.00038559,-0.00054463,0.0,0 STARLINK-4749,1 53818U 22114A   22276.91667824 -.00054463  00000-0 -38559-3 0  9994,2 53818  53.2148 185.1994 0001221 115.0397 243.0494 15.73233567  2919,6727.799,91.531,350.486,348.843,0.0
53818.0,STARLINK-4749,PAYLOAD,2022-10-04 06:00:00,15.732253699999998,0.000127,53.2146,183.5508,105.4209,341.6053,-1.9622e-05,-3.376e-05,0.0,0 STARLINK-4749,1 53818U 22114A   22277.25001157 -.00003376  00000-0 -19622-4 0  9991,2 53818  53.2146 183.5508 0001270 105.4209 341.6053 15.73225370  2974,6727.823,91.532,350.542,348.833,0.0
